OBJECT_NAME,OBJECT_ID,EPOCH,MEAN_MOTION,ECCENTRICITY,INCLINATION,RA_OF_ASC_NODE,ARG_OF_PERICENTER,MEAN_ANOMALY,EPHEMERIS_TYPE,CLASSIFICATION_TYPE,NORAD_CAT_ID,ELEMENT_SET_NO,REV_AT_EPOCH,BSTAR,MEAN_MOTION_DOT,MEAN_MOTION_DDOT
TRITON-1,2013-066M,2026-05-20T16:11:05.542080,14.81573833,.00894151,97.8266,51.1080,325.0278,34.5082,0,U,39427,999,67001,.16214029E-3,.1306E-4,0
GOMX-1,2013-066Q,2026-05-20T14:33:44.399232,14.69336698,.01290552,97.6494,342.8091,165.4279,195.0706,0,U,39430,999,66586,.20083874E-3,.1297E-4,0
CUBEBUG-2 (LO-74),2013-066AA,2026-05-20T14:19:05.007936,14.93520077,.0059385,97.8896,89.4669,118.1105,242.6134,0,U,39440,999,67287,.23645483E-3,.2516E-4,0
NEE-02 KRYSAOR,2013-066AB,2026-05-20T08:13:06.723552,14.86498349,.00666819,97.8886,79.7609,159.7585,200.6298,0,U,39441,999,67206,.1205875E-3,.1052E-4,0
FUNCUBE-1 (AO-73),2013-066AE,2026-05-19T21:07:13.054944,15.09086227,.00348521,97.8266,110.7464,301.7800,58.0035,0,U,39444,999,67539,.33982096E-3,.5392E-4,0
UWE-3,2013-066AG,2026-05-19T20:57:05.279328,14.96754231,.00504162,97.8681,95.7656,55.1859,305.4090,0,U,39446,999,67334,.25518464E-3,.2931E-4,0
SMDC ONE 2.4,2013-072H,2026-05-20T08:09:18.240480,15.17605480,.01410978,120.4895,244.6206,349.0243,10.7768,0,U,39469,999,11360,.27385193E-3,.6773E-4,0
COSMOS 2488 (RODNIK-S 7),2013-076A,2026-05-20T14:07:43.991904,12.42904772,.00202607,82.4843,185.8895,152.6720,207.5430,0,U,39483,999,56246,-.44631471E-3,-.52E-6,0
COSMOS 2489 (RODNIK-S 8),2013-076B,2026-05-20T15:27:06.205248,12.42879369,.00220889,82.4881,187.2247,152.7016,207.5230,0,U,39484,999,56252,-.32388824E-3,-.35E-6,0
COSMOS 2490 (RODNIK-S 9),2013-076C,2026-05-20T14:46:33.302208,12.42877172,.00219053,82.4827,185.3219,168.1626,191.9973,0,U,39485,999,56245,-.24122751E-4,.7E-7,0
KAZEOSAT 1,2014-024A,2026-05-20T14:45:05.940576,14.42068242,.00016124,98.3208,213.7459,88.6476,271.4899,0,U,39731,999,63458,.10784373E-3,.312E-5,0
COSMOS 2496 (RODNIK-S 10),2014-028A,2026-05-20T13:45:27.676800,12.42876998,.00207519,82.4424,126.0274,136.3796,223.8928,0,U,39761,999,54408,-.81520303E-3,-.103E-5,0
COSMOS 2497 (RODNIK-S 11),2014-028B,2026-05-20T15:06:17.021952,12.42892914,.00213863,82.4472,127.6714,131.4276,228.8645,0,U,39762,999,54409,-.20607835E-3,-.19E-6,0
COSMOS 2498 (RODNIK-S 12),2014-028C,2026-05-20T14:36:46.711008,12.42979361,.00221098,82.4433,126.1833,131.1934,229.1057,0,U,39763,999,54412,-.5528114E-5,.9E-7,0
HODOYOSHI-4,2014-033B,2026-05-20T16:00:08.400960,14.88055004,.00246402,97.5449,326.8192,39.8560,320.4461,0,U,40011,999,64471,.93982899E-4,.816E-5,0
UNISAT-6,2014-033C,2026-05-20T10:20:35.973888,14.88062479,.00458306,97.7851,293.6405,158.4308,201.8853,0,U,40012,999,64203,.24484643E-3,.2238E-4,0
DEIMOS-2,2014-033D,2026-05-20T15:36:15.513120,14.93635941,.00021636,97.5855,16.1027,75.1903,284.9557,0,U,40013,999,63361,.59159587E-4,.571E-5,0
BUGSAT-1 (TITA),2014-033E,2026-05-20T13:37:45.001344,15.15262265,.00266275,98.0418,231.5098,275.1655,84.6537,0,U,40014,999,65165,.16808195E-3,.3112E-4,0
SAUDISAT 4,2014-033G,2026-05-20T09:21:53.817408,14.79497867,.00453153,97.7548,287.4930,162.1308,198.1510,0,U,40016,999,64196,.65147064E-4,.443E-5,0
APRIZESAT 9,2014-033J,2026-05-20T07:27:50.348160,14.74176479,.00648154,97.9022,274.1970,290.3379,69.0873,0,U,40018,999,63945,.51247174E-4,.296E-5,0
BRITE-CA1 (TORONTO),2014-033L,2026-05-20T07:35:18.042720,14.72634211,.00787246,97.9701,269.7647,7.1930,353.0388,0,U,40020,999,63811,.68904928E-4,.407E-5,0
