TRITON-1                
1 39427U 13066M   26140.67436970  .00001306  00000+0  16214-3 0  9992
2 39427  97.8266  51.1080 0089415 325.0278  34.5082 14.81573833670013
GOMX-1                  
1 39430U 13066Q   26140.60676388  .00001297  00000+0  20084-3 0  9997
2 39430  97.6494 342.8091 0129055 165.4279 195.0706 14.69336698665867
CUBEBUG-2 (LO-74)       
1 39440U 13066AA  26140.59658574  .00002516  00000+0  23645-3 0  9994
2 39440  97.8896  89.4669 0059385 118.1105 242.6134 14.93520077672878
NEE-02 KRYSAOR          
1 39441U 13066AB  26140.34243893  .00001052  00000+0  12059-3 0  9993
2 39441  97.8886  79.7609 0066681 159.7585 200.6298 14.86498349672068
FUNCUBE-1 (AO-73)       
1 39444U 13066AE  26139.88001221  .00005392  00000+0  33982-3 0  9999
2 39444  97.8266 110.7464 0034852 301.7800  58.0035 15.09086227675399
UWE-3                   
1 39446U 13066AG  26139.87297777  .00002931  00000+0  25518-3 0  9995
2 39446  97.8681  95.7656 0050416  55.1859 305.4090 14.96754231673340
SMDC ONE 2.4            
1 39469U 13072H   26140.33979445  .00006773  00000+0  27385-3 0  9991
2 39469 120.4895 244.6206 0141097 349.0243  10.7768 15.17605480113600
COSMOS 2488 (RODNIK-S 7)
1 39483U 13076A   26140.58870361 -.00000052  00000+0 -44631-3 0  9994
2 39483  82.4843 185.8895 0020260 152.6720 207.5430 12.42904772562467
COSMOS 2489 (RODNIK-S 8)
1 39484U 13076B   26140.64382182 -.00000035  00000+0 -32389-3 0  9999
2 39484  82.4881 187.2247 0022088 152.7016 207.5230 12.42879369562524
COSMOS 2490 (RODNIK-S 9)
1 39485U 13076C   26140.61566322  .00000007  00000+0 -24123-4 0  9993
2 39485  82.4827 185.3219 0021905 168.1626 191.9973 12.42877172562450
KAZEOSAT 1              
1 39731U 14024A   26140.61465209  .00000312  00000+0  10784-3 0  9998
2 39731  98.3208 213.7459 0001612  88.6476 271.4899 14.42068242634584
COSMOS 2496 (RODNIK-S *)
1 39761U 14028A   26140.57323700 -.00000103  00000+0 -81520-3 0  9995
2 39761  82.4424 126.0274 0020751 136.3796 223.8928 12.42876998544085
COSMOS 2497 (RODNIK-S *)
1 39762U 14028B   26140.62936368 -.00000019  00000+0 -20608-3 0  9998
2 39762  82.4472 127.6714 0021386 131.4276 228.8645 12.42892914544097
COSMOS 2498 (RODNIK-S *)
1 39763U 14028C   26140.60887397  .00000009  00000+0 -55281-5 0  9999
2 39763  82.4433 126.1833 0022109 131.1934 229.1057 12.42979361544120
HODOYOSHI-4             
1 40011U 14033B   26140.66676390  .00000816  00000+0  93983-4 0  9993
2 40011  97.5449 326.8192 0024640  39.8560 320.4461 14.88055004644711
UNISAT-6                
1 40012U 14033C   26140.43097192  .00002238  00000+0  24485-3 0  9996
2 40012  97.7851 293.6405 0045830 158.4308 201.8853 14.88062479642035
DEIMOS-2                
1 40013U 14033D   26140.65017955  .00000571  00000+0  59160-4 0  9997
2 40013  97.5855  16.1027 0002163  75.1903 284.9557 14.93635941633617
BUGSAT-1 (TITA)         
1 40014U 14033E   26140.56788196  .00003112  00000+0  16808-3 0  9995
2 40014  98.0418 231.5098 0026627 275.1655  84.6537 15.15262265651654
SAUDISAT 4              
1 40016U 14033G   26140.39020622  .00000443  00000+0  65147-4 0  9996
2 40016  97.7548 287.4930 0045315 162.1308 198.1510 14.79497867641968
APRIZESAT 9             
1 40018U 14033J   26140.31099940  .00000296  00000+0  51247-4 0  9991
2 40018  97.9022 274.1970 0064815 290.3379  69.0873 14.74176479639451
BRITE-CA1 (TORONTO)     
1 40020U 14033L   26140.31618105  .00000407  00000+0  68905-4 0  9997
2 40020  97.9701 269.7647 0078724   7.1930 353.0388 14.72634211638110
